[{"OBJECT_NAME":"STARLINK-3742","OBJECT_ID":"2022-041AU","EPOCH":"2026-03-09T09:30:46.662624","MEAN_MOTION":15.08837913,"ECCENTRICITY":0.00014576,"INCLINATION":53.2181,"RA_OF_ASC_NODE":100.4375,"ARG_OF_PERICENTER":95.149,"MEAN_ANOMALY":264.9668,"EPHEMERIS_TYPE":0,"CLASSIFICATION_TYPE":"U","NORAD_CAT_ID":52303,"ELEMENT_SET_NO":999,"REV_AT_EPOCH":21568,"BSTAR":1.7588881e-5,"MEAN_MOTION_DOT":-8.0e-8,"MEAN_MOTION_DDOT":0},{"OBJECT_NAME":"CZ-4C DEB","OBJECT_ID":"2018-031H","EPOCH":"2026-03-09T10:10:58.582560","MEAN_MOTION":15.14033759,"ECCENTRICITY":0.00199639,"INCLINATION":98.1663,"RA_OF_ASC_NODE":242.9335,"ARG_OF_PERICENTER":272.748,"MEAN_ANOMALY":87.1465,"EPHEMERIS_TYPE":0,"CLASSIFICATION_TYPE":"U","NORAD_CAT_ID":43266,"ELEMENT_SET_NO":999,"REV_AT_EPOCH":43166,"BSTAR":0.00079064643,"MEAN_MOTION_DOT":0.00014379,"MEAN_MOTION_DDOT":0}]
